{
    "links": {
        "self": "http://www.neowsapp.com/rest/v1/neo/3465948?api_key=iIulBulltgU6a56xZRHN4H3l9WmuAYTsLGpBGhQ2"
    },
    "id": "3465948",
    "neo_reference_id": "3465948",
    "name": "(2009 QM5)",
    "designation": "2009 QM5",
    "nasa_jpl_url": "http://ssd.jpl.nasa.gov/sbdb.cgi?sstr=3465948",
    "absolute_magnitude_h": 22.5,
    "estimated_diameter": {
        "kilometers": {
            "estimated_diameter_min": 0.0840533402,
            "estimated_diameter_max": 0.1879489824
        },
        "meters": {
            "estimated_diameter_min": 84.0533402073,
            "estimated_diameter_max": 187.9489824394
        },
        "miles": {
            "estimated_diameter_min": 0.0522283081,
            "estimated_diameter_max": 0.1167860472
        },
        "feet": {
            "estimated_diameter_min": 275.7655606856,
            "estimated_diameter_max": 616.6305395464
        }
    },
    "is_potentially_hazardous_asteroid": false,
    "close_approach_data": [
        {
            "close_approach_date": "2009-08-04",
            "close_approach_date_full": "2009-Aug-04 19:52",
            "epoch_date_close_approach": 1249415520000,
            "relative_velocity": {
                "kilometers_per_second": "2.7885684481",
                "kilometers_per_hour": "10038.8464133169",
                "miles_per_hour": "6237.7487616524"
            },
            "miss_distance": {
                "astronomical": "0.2575013068",
                "lunar": "100.1680083452",
                "kilometers": "38521647.019496516",
                "miles": "23936241.5196472808"
            },
            "orbiting_body": "Earth"
        }
    ],
    "orbital_data": {
        "orbit_id": "16",
        "orbit_determination_date": "2017-04-06 09:00:13",
        "first_observation_date": "2009-08-18",
        "last_observation_date": "2009-09-18",
        "data_arc_in_days": 31,
        "observations_used": 54,
        "orbit_uncertainty": "7",
        "minimum_orbit_intersection": ".231007",
        "jupiter_tisserand_invariant": "3.623",
        "epoch_osculation": "2459000.5",
        "eccentricity": ".4122852653450307",
        "semi_major_axis": "2.112072771664422",
        "inclination": "3.329573947285917",
        "ascending_node_longitude": "171.1752974732768",
        "orbital_period": "1121.144894426213",
        "perihelion_distance": "1.241296288570741",
        "perihelion_argument": "135.9378116677261",
        "aphelion_distance": "2.982849254758102",
        "perihelion_time": "2459521.287633671904",
        "mean_anomaly": "192.7749169139847",
        "mean_motion": ".3211003339441181",
        "equinox": "J2000",
        "orbit_class": {
            "orbit_class_type": "AMO",
            "orbit_class_description": "Near-Earth asteroid orbits similar to that of 1221 Amor",
            "orbit_class_range": "1.017 AU < q (perihelion) < 1.3 AU"
        }
    },
    "is_sentry_object": false
}